ORBCOMM-X               
1 21576U 91050C   24190.92676132  .00000518  00000+0  16912-3 0  9993
2 21576  98.3887 257.8008 0004603 132.5810 227.5769 14.42581387732619
ORBCOMM FM01            
1 23545U 95017A   24190.55407151  .00005941  00000+0  77714-3 0  9992
2 23545  69.9649 205.4314 0003703 161.2597 198.8690 14.80894482561468
ORBCOMM FM02            
1 23546U 95017B   24190.80035820  .00006582  00000+0  86621-3 0  9990
2 23546  69.9665 224.3466 0004972 139.3039 220.8483 14.80577676561145
ORBCOMM FM08            
1 25112U 97084A   24190.73945696  .00001510  00000+0  49001-3 0  9997
2 25112  45.0134 213.1895 0009400 308.1246  51.8756 14.42887535391716
ORBCOMM FM10            
1 25113U 97084B   24190.75053188  .00001462  00000+0  47706-3 0  9992
2 25113  45.0148 215.0442 0007344 285.4944  74.5096 14.42788607566867
ORBCOMM FM12            
1 25115U 97084D   24190.80501017  .00001432  00000+0  46976-3 0  9994
2 25115  45.0141 214.6195 0007140 285.9340  74.0723 14.42616783391639
ORBCOMM FM09            
1 25116U 97084E   24190.74856904  .00001364  00000+0  44961-3 0  9992
2 25116  45.0144 215.5939 0008109 274.8219  85.1705 14.42580989391830
